NORAD_CAT_ID,OBJECT_NAME,OBJECT_TYPE,EPOCH,MEAN_MOTION,ECCENTRICITY,INCLINATION,RA_OF_ASC_NODE,ARG_OF_PERICENTER,MEAN_ANOMALY,BSTAR,MEAN_MOTION_DOT,MEAN_MOTION_DDOT,TLE_LINE0,TLE_LINE1,TLE_LINE2,SEMIMAJOR_AXIS,PERIOD,APOGEE,PERIGEE,DECAYED
53404.0,STARLINK-4509,PAYLOAD,2023-06-16 13:01:22,15.08850762,0.0001143,53.2152,270.4902,80.1046,280.0075,0.00011857,1.6e-05,0.0,0 STARLINK-4509,1 53404U 22097S   23167.54262406  .00001600  00000-0  11857-3 0  9996,2 53404  53.2152 270.4902 0001143  80.1046 280.0075 15.08850762 48116,6917.847,95.437,540.503,538.922,0.0
53404.0,STARLINK-4509,PAYLOAD,2023-06-16 14:36:45,15.08854052,9.35e-05,53.2162,270.1929,67.1359,292.9731,0.00020181,2.927e-05,0.0,0 STARLINK-4509,1 53404U 22097S   23167.60885660  .00002927  00000-0  20181-3 0  9999,2 53404  53.2162 270.1929 0000935  67.1359 292.9731 15.08854052 47636,6917.837,95.437,540.349,539.056,0.0
53404.0,STARLINK-4509,PAYLOAD,2023-06-16 16:12:08,15.08856174,0.0001092,53.216,269.8938,83.4616,276.6501,0.00022297,3.264e-05,0.0,0 STARLINK-4509,1 53404U 22097S   23167.67509387  .00003264  00000-0  22297-3 0  9990,2 53404  53.2160 269.8938 0001092  83.4616 276.6501 15.08856174 48138,6917.831,95.437,540.451,538.941,0.0
53404.0,STARLINK-4509,PAYLOAD,2023-06-17 06:30:38,15.0883055,9.23e-05,53.2157,267.2177,92.1276,267.9822,-3.2841e-05,-8.1e-06,0.0,0 STARLINK-4509,1 53404U 22097S   23168.27127813 -.00000810  00000-0 -32841-4 0  9990,2 53404  53.2157 267.2177 0000923  92.1276 267.9822 15.08830550 47736,6917.909,95.438,540.413,539.136,0.0
53404.0,STARLINK-4509,PAYLOAD,2023-06-17 12:52:11,15.08829952,0.000108,53.2159,266.0292,83.2018,276.9097,-2.5976e-05,-7.01e-06,0.0,0 STARLINK-4509,1 53404U 22097S   23168.53624056 -.00000701  00000-0 -25976-4 0  9990,2 53404  53.2159 266.0292 0001080  83.2018 276.9097 15.08829952 48260,6917.911,95.438,540.523,539.029,0.0
53404.0,STARLINK-4509,PAYLOAD,2023-06-17 23:59:52,15.08834675,0.000111,53.2165,263.947,88.0069,272.105,2.1948e-05,6.1e-07,0.0,0 STARLINK-4509,1 53404U 22097S   23168.99991643  .00000061  00000-0  21948-4 0  9991,2 53404  53.2165 263.9470 0001110  88.0069 272.1050 15.08834675 47842,6917.897,95.438,540.53,538.994,0.0
53404.0,STARLINK-4509,PAYLOAD,2023-06-18 12:42:57,15.08846444,8.57e-05,53.2151,261.5694,74.9551,285.1536,0.00018617,2.677e-05,0.0,0 STARLINK-4509,1 53404U 22097S   23169.52983047  .00002677  00000-0  18617-3 0  9993,2 53404  53.2151 261.5694 0000857  74.9551 285.1536 15.08846444 48410,6917.861,95.437,540.319,539.133,0.0
53404.0,STARLINK-4509,PAYLOAD,2023-06-18 15:53:43,15.08852673,9.97e-05,53.2157,260.9727,87.6139,272.4967,0.00018213,2.613e-05,0.0,0 STARLINK-4509,1 53404U 22097S   23169.66230718  .00002613  00000-0  18213-3 0  9990,2 53404  53.2157 260.9727 0000997  87.6139 272.4967 15.08852673 47949,6917.842,95.437,540.396,539.017,0.0
53404.0,STARLINK-4509,PAYLOAD,2023-06-19 12:33:44,15.08844489,9.78e-05,53.2155,257.1068,80.5942,279.5161,0.00028467,4.246e-05,0.0,0 STARLINK-4509,1 53404U 22097S   23170.52343313  .00004246  00000-0  28467-3 0  9999,2 53404  53.2155 257.1068 0000978  80.5942 279.5161 15.08844489 48071,6917.867,95.437,540.408,539.055,0.0
53404.0,STARLINK-4509,PAYLOAD,2023-06-20 12:24:31,15.08844792,9.73e-05,53.2152,252.647,77.3871,282.723,5.4589e-05,5.81e-06,0.0,0 STARLINK-4509,1 53404U 22097S   23171.51703097  .00000581  00000-0  54589-4 0  9991,2 53404  53.2152 252.6470 0000973  77.3871 282.7230 15.08844792 48716,6917.866,95.437,540.404,539.058,0.0
53404.0,STARLINK-4509,PAYLOAD,2023-06-21 12:15:18,15.08840145,0.0001245,53.2146,248.1884,90.8535,269.26,3.5566e-05,2.78e-06,0.0,0 STARLINK-4509,1 53404U 22097S   23172.51063003  .00000278  00000-0  35566-4 0  9995,2 53404  53.2146 248.1884 0001245  90.8535 269.2600 15.08840145 48863,6917.88,95.438,540.606,538.884,0.0
53404.0,STARLINK-4509,PAYLOAD,2023-06-21 23:23:00,15.08838912,9.81e-05,53.215,246.1069,74.6911,285.4189,4.9736e-05,5.04e-06,0.0,0 STARLINK-4509,1 53404U 22097S   23172.97431423  .00000504  00000-0  49736-4 0  9996,2 53404  53.2150 246.1069 0000981  74.6911 285.4189 15.08838912 48440,6917.884,95.438,540.427,539.07,0.0
53404.0,STARLINK-4509,PAYLOAD,2023-06-22 08:55:19,15.08862359,8.85e-05,53.2162,244.3223,68.539,291.5696,-0.00024755,-4.228e-05,0.0,0 STARLINK-4509,1 53404U 22097S   23173.37175180 -.00004228  00000-0 -24755-3 0  9998,2 53404  53.2162 244.3223 0000885  68.5390 291.5696 15.08862359 48501,6917.812,95.436,540.289,539.065,0.0
53404.0,STARLINK-4509,PAYLOAD,2023-06-22 12:06:05,15.08842616,8.92e-05,53.2159,243.7269,79.3929,280.7163,0.00011512,1.545e-05,0.0,0 STARLINK-4509,1 53404U 22097S   23173.50423382  .00001545  00000-0  11512-3 0  9997,2 53404  53.2159 243.7269 0000892  79.3929 280.7163 15.08842616 48521,6917.872,95.437,540.354,539.12,0.0
53404.0,STARLINK-4509,PAYLOAD,2023-06-23 13:32:15,15.08848117,0.0001011,53.2146,238.9694,85.9673,274.1434,0.0001164,1.566e-05,0.0,0 STARLINK-4509,1 53404U 22097S   23174.56406966  .00001566  00000-0  11640-3 0  9998,2 53404  53.2146 238.9694 0001011  85.9673 274.1434 15.08848117 48685,6917.856,95.437,540.42,539.021,0.0
53404.0,STARLINK-4509,PAYLOAD,2023-06-23 21:29:11,15.08840959,0.0001062,53.2146,237.4831,80.566,279.5452,5.878e-05,6.48e-06,0.0,0 STARLINK-4509,1 53404U 22097S   23174.89527367  .00000648  00000-0  58780-4 0  9990,2 53404  53.2146 237.4831 0001062  80.5660 279.5452 15.08840959 48736,6917.877,95.437,540.477,539.008,0.0
53404.0,STARLINK-4509,PAYLOAD,2023-06-24 08:36:54,15.08832707,0.0001007,53.2156,235.4002,85.5211,274.5896,2.7732e-05,1.54e-06,0.0,0 STARLINK-4509,1 53404U 22097S   23175.35896239  .00000154  00000-0  27732-4 0  9994,2 53404  53.2156 235.4002 0001007  85.5211 274.5896 15.08832707 48808,6917.903,95.438,540.464,539.071,0.0
53404.0,STARLINK-4509,PAYLOAD,2023-06-24 11:47:40,15.08839917,9.53e-05,53.2151,234.8045,84.4035,275.7065,4.0104e-05,3.51e-06,0.0,0 STARLINK-4509,1 53404U 22097S   23175.49143743  .00000351  00000-0  40104-4 0  9991,2 53404  53.2151 234.8045 0000953  84.4035 275.7065 15.08839917 48827,6917.881,95.438,540.405,539.086,0.0
53404.0,STARLINK-4509,PAYLOAD,2023-06-25 14:49:12,15.08840695,0.0001252,53.215,229.7495,118.3749,241.7369,0.0002739,4.074e-05,0.0,0 STARLINK-4509,1 53404U 22097S   23176.61750980  .00004074  00000-0  27390-3 0  9990,2 53404  53.2150 229.7495 0001252 118.3749 241.7369 15.08840695 48993,6917.878,95.438,540.609,538.877,0.0
53404.0,STARLINK-4509,PAYLOAD,2023-06-26 09:53:51,15.08839639,0.0001138,53.2145,226.1815,91.0741,269.0382,0.00010933,1.453e-05,0.0,0 STARLINK-4509,1 53404U 22097S   23177.41239831  .00001453  00000-0  10933-3 0  9999,2 53404  53.2145 226.1815 0001138  91.0741 269.0382 15.08839639 49115,6917.881,95.438,540.534,538.959,0.0
53404.0,STARLINK-4509,PAYLOAD,2023-06-28 09:35:25,15.08837573,0.0001038,53.2154,217.26,91.1336,268.9775,6.8808e-05,8.07e-06,0.0,0 STARLINK-4509,1 53404U 22097S   23179.39960133  .00000807  00000-0  68808-4 0  9991,2 53404  53.2154 217.2600 0001038  91.1336 268.9775 15.08837573 49410,6917.888,95.438,540.471,539.035,0.0
53404.0,STARLINK-4509,PAYLOAD,2023-06-29 09:26:14,15.08809359,0.0001207,53.2151,212.7998,139.1541,220.9542,-0.00017959,-3.142e-05,0.0,0 STARLINK-4509,1 53404U 22097S   23180.39322557 -.00003142  00000-0 -17959-3 0  9992,2 53404  53.2151 212.7998 0001207 139.1541 220.9542 15.08809359 49563,6917.974,95.439,540.674,539.004,0.0
53404.0,STARLINK-4509,PAYLOAD,2023-06-29 14:12:22,15.08830375,0.0001352,53.2151,211.9076,154.0527,206.0533,-2.9432e-06,-3.35e-06,0.0,0 STARLINK-4509,1 53404U 22097S   23180.59192816 -.00000335  00000-0 -29432-5 0  9999,2 53404  53.2151 211.9076 0001352 154.0527 206.0533 15.08830375 49592,6917.91,95.438,540.71,538.84,0.0
53404.0,STARLINK-4509,PAYLOAD,2023-07-01 09:07:47,15.0883749,9.33e-05,53.2148,203.8782,84.618,275.4918,8.0169e-05,9.88e-06,0.0,0 STARLINK-4509,1 53404U 22097S   23182.38040679  .00000988  00000-0  80169-4 0  9992,2 53404  53.2148 203.8782 0000933  84.6180 275.4918 15.08837490 49861,6917.888,95.438,540.398,539.108,0.0
53404.0,STARLINK-4509,PAYLOAD,2023-07-02 10:33:57,15.08840506,9.57e-05,53.2152,199.1202,82.5363,277.5738,3.8236e-05,3.21e-06,0.0,0 STARLINK-4509,1 53404U 22097S   23183.44024676  .00000321  00000-0  38236-4 0  9998,2 53404  53.2152 199.1202 0000957  82.5363 277.5738 15.08840506 50021,6917.879,95.438,540.406,539.082,0.0
53404.0,STARLINK-4509,PAYLOAD,2023-07-04 10:15:31,15.08842568,9.42e-05,53.2152,190.1996,74.7139,285.3958,7.4154e-05,8.93e-06,0.0,0 STARLINK-4509,1 53404U 22097S   23185.42744362  .00000893  00000-0  74154-4 0  9992,2 53404  53.2152 190.1996 0000942  74.7139 285.3958 15.08842568 50324,6917.873,95.437,540.389,539.086,0.0
53404.0,STARLINK-4509,PAYLOAD,2023-07-05 06:55:32,15.08840054,9.77e-05,53.2156,186.3334,78.081,282.0292,1.6901e-05,-1.9e-07,0.0,0 STARLINK-4509,1 53404U 22097S   23186.28856625 -.00000019  00000-0  16901-4 0  9990,2 53404  53.2156 186.3334 0000977  78.0810 282.0292 15.08840054 50459,6917.88,95.438,540.421,539.069,0.0
53404.0,STARLINK-4509,PAYLOAD,2023-07-06 08:21:42,15.08839566,9.92e-05,53.2158,181.5759,78.1584,281.9519,3.5594e-05,2.79e-06,0.0,0 STARLINK-4509,1 53404U 22097S   23187.34840681  .00000279  00000-0  35594-4 0  9999,2 53404  53.2158 181.5759 0000992  78.1584 281.9519 15.08839566 50619,6917.882,95.438,540.433,539.06,0.0
53404.0,STARLINK-4509,PAYLOAD,2023-07-07 09:47:52,15.08840315,9.94e-05,53.2155,176.8178,75.3334,284.7769,6.5645e-05,7.57e-06,0.0,0 STARLINK-4509,1 53404U 22097S   23188.40824746  .00000757  00000-0  65645-4 0  9992,2 53404  53.2155 176.8178 0000994  75.3334 284.7769 15.08840315 50771,6917.879,95.438,540.432,539.057,0.0
53404.0,STARLINK-4509,PAYLOAD,2023-07-07 16:09:25,15.08827494,0.0001038,53.2157,175.6282,77.7328,282.378,0.00016229,2.295e-05,0.0,0 STARLINK-4509,1 53404U 22097S   23188.67321419  .00002295  00000-0  16229-3 0  9992,2 53404  53.2157 175.6282 0001038  77.7328 282.3780 15.08827494 50810,6917.919,95.438,540.502,539.066,0.0
